{"type":"FeatureCollection","features":[{"type":"Feature","properties":{"kind":"meridian"},"geometry":{"type":"LineString","coordinates":[[-180,-80],[-180,-70],[-180,-60],[-180,-50],[-180,-40],[-180,-30],[-180,-20],[-180,-10],[-180,0],[-180,10],[-180,20],[-180,30],[-180,40],[-180,50],[-180,60],[-180,70],[-180,80]]}},{"type":"Feature","properties":{"kind":"meridian"},"geometry":{"type":"LineString","coordinates":[[-150,-80],[-150,-70],[-150,-60],[-150,-50],[-150,-40],[-150,-30],[-150,-20],[-150,-10],[-150,0],[-150,10],[-150,20],[-150,30],[-150,40],[-150,50],[-150,60],[-150,70],[-150,80]]}},{"type":"Feature","properties":{"kind":"meridian"},"geometry":{"type":"LineString","coordinates":[[-120,-80],[-120,-70],[-120,-60],[-120,-50],[-120,-40],[-120,-30],[-120,-20],[-120,-10],[-120,0],[-120,10],[-120,20],[-120,30],[-120,40],[-120,50],[-120,60],[-120,70],[-120,80]]}},{"type":"Feature","properties":{"kind":"meridian"},"geometry":{"type":"LineString","coordinates":[[-90,-80],[-90,-70],[-90,-60],[-90,-50],[-90,-40],[-90,-30],[-90,-20],[-90,-10],[-90,0],[-90,10],[-90,20],[-90,30],[-90,40],[-90,50],[-90,60],[-90,70],[-90,80]]}},{"type":"Feature","properties":{"kind":"meridian"},"geometry":{"type":"LineString","coordinates":[[-60,-80],[-60,-70],[-60,-60],[-60,-50],[-60,-40],[-60,-30],[-60,-20],[-60,-10],[-60,0],[-60,10],[-60,20],[-60,30],[-60,40],[-60,50],[-60,60],[-60,70],[-60,80]]}},{"type":"Feature","properties":{"kind":"meridian"},"geometry":{"type":"LineString","coordinates":[[-30,-80],[-30,-70],[-30,-60],[-30,-50],[-30,-40],[-30,-30],[-30,-20],[-30,-10],[-30,0],[-30,10],[-30,20],[-30,30],[-30,40],[-30,50],[-30,60],[-30,70],[-30,80]]}},{"type":"Feature","properties":{"kind":"meridian"},"geometry":{"type":"LineString","coordinates":[[0,-80],[0,-70],[0,-60],[0,-50],[0,-40],[0,-30],[0,-20],[0,-10],[0,0],[0,10],[0,20],[0,30],[0,40],[0,50],[0,60],[0,70],[0,80]]}},{"type":"Feature","properties":{"kind":"meridian"},"geometry":{"type":"LineString","coordinates":[[30,-80],[30,-70],[30,-60],[30,-50],[30,-40],[30,-30],[30,-20],[30,-10],[30,0],[30,10],[30,20],[30,30],[30,40],[30,50],[30,60],[30,70],[30,80]]}},{"type":"Feature","properties":{"kind":"meridian"},"geometry":{"type":"LineString","coordinates":[[60,-80],[60,-70],[60,-60],[60,-50],[60,-40],[60,-30],[60,-20],[60,-10],[60,0],[60,10],[60,20],[60,30],[60,40],[60,50],[60,60],[60,70],[60,80]]}},{"type":"Feature","properties":{"kind":"meridian"},"geometry":{"type":"LineString","coordinates":[[90,-80],[90,-70],[90,-60],[90,-50],[90,-40],[90,-30],[90,-20],[90,-10],[90,0],[90,10],[90,20],[90,30],[90,40],[90,50],[90,60],[90,70],[90,80]]}},{"type":"Feature","properties":{"kind":"meridian"},"geometry":{"type":"LineString","coordinates":[[120,-80],[120,-70],[120,-60],[120,-50],[120,-40],[120,-30],[120,-20],[120,-10],[120,0],[120,10],[120,20],[120,30],[120,40],[120,50],[120,60],[120,70],[120,80]]}},{"type":"Feature","properties":{"kind":"meridian"},"geometry":{"type":"LineString","coordinates":[[150,-80],[150,-70],[150,-60],[150,-50],[150,-40],[150,-30],[150,-20],[150,-10],[150,0],[150,10],[150,20],[150,30],[150,40],[150,50],[150,60],[150,70],[150,80]]}},{"type":"Feature","properties":{"kind":"meridian"},"geometry":{"type":"LineString","coordinates":[[180,-80],[180,-70],[180,-60],[180,-50],[180,-40],[180,-30],[180,-20],[180,-10],[180,0],[180,10],[180,20],[180,30],[180,40],[180,50],[180,60],[180,70],[180,80]]}},{"type":"Feature","properties":{"kind":"parallel"},"geometry":{"type":"LineString","coordinates":[[-180,-60],[-160,-60],[-140,-60],[-120,-60],[-100,-60],[-80,-60],[-60,-60],[-40,-60],[-20,-60],[0,-60],[20,-60],[40,-60],[60,-60],[80,-60],[100,-60],[120,-60],[140,-60],[160,-60],[180,-60]]}},{"type":"Feature","properties":{"kind":"parallel"},"geometry":{"type":"LineString","coordinates":[[-180,-30],[-160,-30],[-140,-30],[-120,-30],[-100,-30],[-80,-30],[-60,-30],[-40,-30],[-20,-30],[0,-30],[20,-30],[40,-30],[60,-30],[80,-30],[100,-30],[120,-30],[140,-30],[160,-30],[180,-30]]}},{"type":"Feature","properties":{"kind":"parallel"},"geometry":{"type":"LineString","coordinates":[[-180,0],[-160,0],[-140,0],[-120,0],[-100,0],[-80,0],[-60,0],[-40,0],[-20,0],[0,0],[20,0],[40,0],[60,0],[80,0],[100,0],[120,0],[140,0],[160,0],[180,0]]}},{"type":"Feature","properties":{"kind":"parallel"},"geometry":{"type":"LineString","coordinates":[[-180,30],[-160,30],[-140,30],[-120,30],[-100,30],[-80,30],[-60,30],[-40,30],[-20,30],[0,30],[20,30],[40,30],[60,30],[80,30],[100,30],[120,30],[140,30],[160,30],[180,30]]}},{"type":"Feature","properties":{"kind":"parallel"},"geometry":{"type":"LineString","coordinates":[[-180,60],[-160,60],[-140,60],[-120,60],[-100,60],[-80,60],[-60,60],[-40,60],[-20,60],[0,60],[20,60],[40,60],[60,60],[80,60],[100,60],[120,60],[140,60],[160,60],[180,60]]}}]}